1 42998U 17068M   21024.88066486  .00003177  00000-0  14040-3 0  9999
2 42998  97.4154 135.4237 0014835  56.3430 303.9219 15.22345797179415
1 42998U 17068M   21025.40650409  .00004071  00000-0  17901-3 0  9995
2 42998  97.4155 135.9426 0014803  54.6021 305.6595 15.22352080179490
1 42998U 17068M   21025.73515276  .00005396  00000-0  23623-3 0  9992
2 42998  97.4156 136.2668 0014791  53.5391 306.7206 15.22357856179540
1 42998U 17068M   21026.26098789  .00007465  00000-0  32548-3 0  9991
2 42998  97.4156 136.7856 0014764  51.7916 308.4647 15.22368142179624
1 42998U 17068M   21027.04973812  .00005526  00000-0  24174-3 0  9999
2 42998  97.4157 137.5638 0014691  49.3137 310.9373 15.22371922179746
1 42998U 17068M   21027.37838300  .00004932  00000-0  21611-3 0  9990
2 42998  97.4158 137.8880 0014674  48.3353 311.9137 15.22374248179797
1 42998U 17068M   21027.83848402  .00004905  00000-0  21490-3 0  9990
2 42998  97.4158 138.3419 0014644  46.8431 313.4027 15.22379034179869
1 42998U 17068M   21028.43004389  .00001605  00000-0  72413-4 0  9991
2 42998  97.4157 138.9254 0014547  44.6182 315.6222 15.22375466179958
1 42998U 17068M   21028.56150181  .00001497  00000-0  67726-4 0  9997
2 42998  97.4157 139.0551 0014547  44.1548 316.0847 15.22375230179970
1 42998U 17068M   21029.54743342  .00001247  00000-0  56933-4 0  9994
2 42998  97.4157 140.0279 0014467  40.9686 319.2635 15.22376949180124
1 42998U 17068M   21029.87607690  .00001165  00000-0  53373-4 0  9999
2 42998  97.4156 140.3521 0014441  39.8749 320.3546 15.22377578180173
1 42998U 17068M   21030.27044886  .00001135  00000-0  52103-4 0  9994
2 42998  97.4155 140.7412 0014409  38.5689 321.6574 15.22378453180233
1 42998U 17068M   21031.84793356  .00001018  00000-0  47056-4 0  9992
2 42998  97.4155 142.2975 0014276  33.4255 326.7880 15.22382328180477
1 42998U 17068M   21032.24230405  .00001077  00000-0  49602-4 0  9992
2 42998  97.4154 142.6865 0014244  32.1032 328.1069 15.22383732180534
1 42998U 17068M   21032.37376077  .00001084  00000-0  49904-4 0  9995
2 42998  97.4155 142.8163 0014233  31.6563 328.5526 15.22384145180552
1 42998U 17068M   21033.29395779  .00001186  00000-0  54303-4 0  9999
2 42998  97.4154 143.7241 0014159  28.5836 331.6173 15.22386995180696
1 42998U 17068M   21033.55687034  .00001426  00000-0  64663-4 0  9993
2 42998  97.4154 143.9835 0014139  27.7162 332.4825 15.22389095180730
1 42998U 17068M   21033.81978383  .00001213  00000-0  55458-4 0  9998
2 42998  97.4154 144.2429 0014112  26.8532 333.3432 15.22388452180779
1 42998U 17068M   21034.54279463  .00000979  00000-0  45329-4 0  9996
2 42998  97.4154 144.9562 0014042  24.4434 335.7465 15.22388729180882
1 42998U 17068M   21035.26580360  .00001221  00000-0  55820-4 0  9995
2 42998  97.4153 145.6695 0013980  22.0021 338.1813 15.22391869180997
1 42998U 17068M   21036.05454005  .00001047  00000-0  48285-4 0  9992
2 42998  97.4153 146.4476 0013891  19.3359 340.8402 15.22392867181115
1 42998U 17068M   21036.58036312  .00001232  00000-0  56272-4 0  9998
2 42998  97.4154 146.9665 0013846  17.4912 342.6798 15.22395375181198
1 42998U 17068M   21036.77754589  .00003968  00000-0  17442-3 0  9995
2 42998  97.4152 147.1610 0013808  16.7391 343.4298 15.22400276181225
1 42998U 17068M   21037.30336692  .00003591  00000-0  15813-3 0  9998
2 42998  97.4147 147.6798 0013720  15.1409 345.0235 15.22403768181304
1 42998U 17068M   21037.56627698  .00003059  00000-0  13515-3 0  9991
2 42998  97.4147 147.9392 0013703  14.1837 345.9781 15.22404640181341
1 42998U 17068M   21037.82918679  .00002662  00000-0  11802-3 0  9998
2 42998  97.4147 148.1985 0013680  13.2034 346.9558 15.22405895181385
1 42998U 17068M   21038.55218589  .00005698  00000-0  24893-3 0  9998
2 42998  97.4149 148.9120 0013640  10.6383 349.5140 15.22418599181493
1 42998U 17068M   21038.81509442  .00005495  00000-0  24019-3 0  9993
2 42998  97.4149 149.1714 0013606   9.7425 350.4073 15.22419993181533
1 42998U 17068M   21039.40663722  .00003473  00000-0  15298-3 0  9994
2 42998  97.4150 149.7551 0013545   7.7037 352.4405 15.22419618181624
1 42998U 17068M   21039.86672514  .00003201  00000-0  14121-3 0  9996
2 42998  97.4151 150.2091 0013504   6.1127 354.0272 15.22422066181697
1 42998U 17068M   21040.06390526  .00003236  00000-0  14273-3 0  9996
2 42998  97.4151 150.4037 0013480   5.3956 354.7423 15.22423441181720
1 42998U 17068M   21040.52399145  .00003616  00000-0  15911-3 0  9995
2 42998  97.4152 150.8576 0013432   3.7990 356.3346 15.22427650181795
1 42998U 17068M   21040.72117100  .00003600  00000-0  15842-3 0  9992
2 42998  97.4152 151.0521 0013410   3.1048 357.0269 15.22429078181824
1 42998U 17068M   21041.24698242  .00002795  00000-0  12366-3 0  9993
2 42998  97.4152 151.5709 0013350   1.2321 358.8946 15.22430710181908
1 42998U 17068M   21041.57561405  .00002721  00000-0  12047-3 0  9994
2 42998  97.4152 151.8952 0013314   0.0734   0.0502 15.22432567181957
1 42998U 17068M   21041.77279288  .00002618  00000-0  11605-3 0  9995
2 42998  97.4152 152.0897 0013304 359.3423   0.7793 15.22433225181986
1 42998U 17068M   21042.29860237  .00002494  00000-0  11067-3 0  9997
2 42998  97.4152 152.6084 0013254 357.4382   2.6784 15.22436011182064
1 42998U 17068M   21042.56150693  .00002412  00000-0  10714-3 0  9993
2 42998  97.4152 152.8678 0013225 356.4854   3.6287 15.22437175182102
1 42998U 17068M   21042.89013716  .00002349  00000-0  10443-3 0  9991
2 42998  97.4152 153.1921 0013196 355.3174   4.7937 15.22438856182153
1 42998U 17068M   21043.54739648  .00002415  00000-0  10727-3 0  9992
2 42998  97.4152 153.8405 0013125 352.9629   7.1421 15.22442657182257
1 42998U 17068M   21043.74457406  .00002398  00000-0  10653-3 0  9991
2 42998  97.4152 154.0350 0013104 352.2703   7.8329 15.22443692182289
1 42998U 17068M   21043.81029990  .00002367  00000-0  10516-3 0  9996
2 42998  97.4152 154.0998 0013098 352.0446   8.0580 15.22443930182299
1 42998U 17068M   21044.53328431  .00002514  00000-0  11150-3 0  9997
2 42998  97.4152 154.8132 0013036 349.4241  10.6719 15.22447285182405
1 42998U 17068M   21044.79618717  .00002960  00000-0  13073-3 0  9995
2 42998  97.4152 155.0725 0013021 348.4555  11.6381 15.22449798182448
1 42998U 17068M   21044.86191310  .00002547  00000-0  11293-3 0  9991
2 42998  97.4152 155.1374 0013012 348.2089  11.8841 15.22448686182458
1 42998U 17068M   21045.51917083  .00001783  00000-0  79984-4 0  9990
2 42998  97.4151 155.7858 0012947 345.8311  14.2561 15.22448269182551
1 42998U 17068M   21046.04497670  .00001676  00000-0  75374-4 0  9994
2 42998  97.4151 156.3046 0012939 343.7305  16.3515 15.22449001182634
1 42998U 17068M   21046.57078162  .00001536  00000-0  69337-4 0  9990
2 42998  97.4151 156.8234 0012889 341.7719  18.3053 15.22450223182715
1 42998U 17068M   21046.76795821  .00001597  00000-0  71937-4 0  9995
2 42998  97.4151 157.0179 0012876 341.0940  18.9817 15.22451186182747
1 42998U 17068M   21047.55666520  .00001507  00000-0  68071-4 0  9992
2 42998  97.4151 157.7960 0012783 338.1774  21.8916 15.22452969182867
1 42998U 17068M   21048.60827001  .00001610  00000-0  72516-4 0  9996
2 42998  97.4150 158.8335 0012680 334.3135  25.7470 15.22457221183022
1 42998U 17068M   21049.26552047  .00001529  00000-0  68972-4 0  9994
2 42998  97.4124 159.4811 0012343 332.1047  27.9526 15.22469112183122
1 42998U 17068M   21049.79131986  .00001510  00000-0  68164-4 0  9990
2 42998  97.4147 160.0007 0012573 329.7531  30.2978 15.22466338183201
1 42998U 17068M   21050.51429142  .00003276  00000-0  14431-3 0  9994
2 42998  97.4145 160.7140 0012482 326.9999  33.0457 15.22473096183314
1 42998U 17068M   21050.84291407  .00003246  00000-0  14298-3 0  9999
2 42998  97.4143 161.0383 0012449 325.7214  34.3218 15.22475662183360
1 42998U 17068M   21051.56587941  .00004115  00000-0  18038-3 0  9992
2 42998  97.4143 161.7517 0012437 322.9042  37.1334 15.22484629183476
1 42998U 17068M   21051.89449869  .00004538  00000-0  19859-3 0  9995
2 42998  97.4143 162.0759 0012422 321.6719  38.3633 15.22489252183527
1 42998U 17068M   21052.15739350  .00004823  00000-0  21083-3 0  9991
2 42998  97.4143 162.3353 0012397 320.7004  39.3331 15.22493271183564
1 42998U 17068M   21052.55173412  .00005795  00000-0  25263-3 0  9999
2 42998  97.4142 162.7245 0012370 319.1851  40.8458 15.22500346183626
1 42998U 17068M   21052.81462736  .00005476  00000-0  23888-3 0  9995
2 42998  97.4143 162.9840 0012354 318.1702  41.8590 15.22503376183664
1 42998U 17068M   21053.53758038  .00005970  00000-0  26007-3 0  9993
2 42998  97.4143 163.6974 0012297 315.3713  44.6533 15.22514139183776
1 42998U 17068M   21053.60330317  .00006178  00000-0  26901-3 0  9991
2 42998  97.4143 163.7622 0012291 315.1041  44.9200 15.22515302183781
1 42998U 17068M   21054.06336208  .00005938  00000-0  25863-3 0  9996
2 42998  97.4145 164.2162 0012264 313.3730  46.6484 15.22520366183850
1 42998U 17068M   21054.26052954  .00006017  00000-0  26203-3 0  9999
2 42998  97.4145 164.4108 0012256 312.6170  47.4032 15.22523135183881
1 42998U 17068M   21055.04919694  .00005941  00000-0  25870-3 0  9993
2 42998  97.4147 165.1891 0012201 309.5220  50.4937 15.22532052184002
1 42998U 17068M   21055.24636327  .00005530  00000-0  24100-3 0  9993
2 42998  97.4147 165.3836 0012188 308.7561  51.2586 15.22533493184038
1 42998U 17068M   21056.23219414  .00003991  00000-0  17479-3 0  9997
2 42998  97.4148 166.3564 0012145 304.9031  55.1063 15.22537945184186
1 42998U 17068M   21056.56080384  .00003232  00000-0  14216-3 0  9999
2 42998  97.4150 166.6807 0012129 303.6304  56.3774 15.22538239184238
1 42998U 17068M   21056.75796931  .00003188  00000-0  14024-3 0  9999
2 42998  97.4149 166.8751 0012119 302.7930  57.2138 15.22539477184262
1 42998U 17068M   21057.54663201  .00002264  00000-0  10051-3 0  9990
2 42998  97.4149 167.6533 0012092 299.6529  60.3503 15.22539927184381
1 42998U 17068M   21057.74379716  .00002254  00000-0  10007-3 0  9997
2 42998  97.4149 167.8478 0012079 298.8550  61.1473 15.22540945184412
